XRISM                   
1 57800U 23137A   26067.05571941  .00008424  00000+0  47956-3 0  9990
2 57800  31.0022 294.2323 0008044  21.4555 338.6420 15.11480009137548
ACS3                    
1 59588U 24077B   26067.41791244  .00031523  00000+0  25339-1 0  9994
2 59588  97.2080   8.8163 0058936  79.9862 280.7945 13.89549723 94022
SZ-21 MODULE            
1 66515U 25246C   26067.48169489  .00048562  00000+0  41839-3 0  9994
2 66515  41.4736 210.7960 0001377 295.9249  64.1451 15.68439645 17889
